ONEWEB-0588             
1 55153U 23004P   25354.11507895  .00000034  00000+0  53432-4 0  9990
2 55153  87.9166  11.0473 0001425 103.1691 256.9600 13.18686868146090
ONEWEB-0598             
1 55154U 23004Q   25354.16801587 -.00002023  00000+0 -57437-2 0  9990
2 55154  87.8852  56.7233 0001361  81.5881 278.5401 13.11427424142438
ONEWEB-0599             
1 55155U 23004R   25354.11929902  .00000085  00000+0  18605-3 0  9997
2 55155  87.9103  41.4741 0001769  91.5805 268.5530 13.17647672143903
ONEWEB-0614             
1 55156U 23004S   25354.23924706  .00000516  00000+0  14200-2 0  9993
2 55156  87.8847  56.7179 0001795 111.8490 248.2829 13.11416721142387
ONEWEB-0616             
1 55157U 23004T   25354.08554549  .00000067  00000+0  13974-3 0  9990
2 55157  87.9112  41.4731 0002522  80.8765 279.2651 13.17647766144119
ONEWEB-0617             
1 55158U 23004U   25354.22737972  .00000148  00000+0  38113-3 0  9992
2 55158  87.8853  56.6998 0001565 112.6410 247.4884 13.11418382142400
ONEWEB-0618             
1 55159U 23004V   25353.98170779  .00005574  00000+0  33320-3 0  9994
2 55159  86.9100 250.3006 0010571 232.6278 127.3998 15.10832379155189
ONEWEB-0619             
1 55160U 23004W   25354.11759893  .00000071  00000+0  14989-3 0  9999
2 55160  87.9110  41.4409 0002210 103.9622 256.1755 13.17649744144012
